{
  "type": "FeatureCollection",
  "features": [
    {
      "type": "Feature",
      "properties": {
        "norad_id": 36036,
        "name": "SMOS",
        "group": "resource",
        "lat": -81.5416658792125,
        "lon": -91.74020556539614,
        "alt_km": 767.4139298066266,
        "timestamp": "2025-12-22T18:58:53.077466+00:00",
        "meta_object_name": "SMOS",
        "meta_object_id": "2009-059A",
        "meta_epoch": "2025-12-22T06:03:11.797632",
        "meta_mean_motion": 14.39749454,
        "meta_eccentricity": 0.00010628,
        "meta_inclination": 98.438,
        "meta_ra_of_asc_node": 181.1598,
        "meta_arg_of_pericenter": 83.3121,
        "meta_mean_anomaly": 276.8189,
        "meta_ephemeris_type": 0,
        "meta_classification_type": "U",
        "meta_norad_cat_id": 36036,
        "meta_element_set_no": 999,
        "meta_rev_at_epoch": 84799,
        "meta_bstar": 0.00013089616,
        "meta_mean_motion_dot": 3.67e-06,
        "meta_mean_motion_ddot": 0,
        "tle_line1": "1 36036U 09059A   25356.25221988  .00000367  00000+0  13090-3 0  9990",
        "tle_line2": "2 36036  98.4380 181.1598 0001062  83.3121 276.8189 14.39749454847990"
      },
      "geometry": {
        "type": "Point",
        "coordinates": [
          -91.74020556539614,
          -81.5416658792125
        ]
      }
    },
    {
      "type": "Feature",
      "properties": {
        "norad_id": 36110,
        "name": "YAOGAN-7",
        "group": "resource",
        "lat": 27.763308459946302,
        "lon": -125.75003439573176,
        "alt_km": 648.0453763039641,
        "timestamp": "2025-12-22T18:58:53.077477+00:00",
        "meta_object_name": "YAOGAN-7",
        "meta_object_id": "2009-069A",
        "meta_epoch": "2025-12-22T04:13:43.452768",
        "meta_mean_motion": 14.77745547,
        "meta_eccentricity": 0.00233887,
        "meta_inclination": 98.0296,
        "meta_ra_of_asc_node": 237.8993,
        "meta_arg_of_pericenter": 249.0784,
        "meta_mean_anomaly": 110.7922,
        "meta_ephemeris_type": 0,
        "meta_classification_type": "U",
        "meta_norad_cat_id": 36110,
        "meta_element_set_no": 999,
        "meta_rev_at_epoch": 86348,
        "meta_bstar": 8.7982108e-05,
        "meta_mean_motion_dot": 5.8e-06,
        "meta_mean_motion_ddot": 0,
        "tle_line1": "1 36110U 09069A   25356.17619737  .00000580  00000+0  87982-4 0  9997",
        "tle_line2": "2 36110  98.0296 237.8993 0023388 249.0784 110.7922 14.77745547863488"
      },
      "geometry": {
        "type": "Point",
        "coordinates": [
          -125.75003439573176,
          27.763308459946302
        ]
      }
    },
    {
      "type": "Feature",
      "properties": {
        "norad_id": 36605,
        "name": "TANDEM-X",
        "group": "resource",
        "lat": -30.366416057398727,
        "lon": 6.4182077532562465,
        "alt_km": 514.7354936366728,
        "timestamp": "2025-12-22T18:58:53.077487+00:00",
        "meta_object_name": "TANDEM-X",
        "meta_object_id": "2010-030A",
        "meta_epoch": "2025-12-21T11:29:57.943104",
        "meta_mean_motion": 15.19156092,
        "meta_eccentricity": 0.0001799,
        "meta_inclination": 97.4444,
        "meta_ra_of_asc_node": 0.7318,
        "meta_arg_of_pericenter": 77.8908,
        "meta_mean_anomaly": 282.2528,
        "meta_ephemeris_type": 0,
        "meta_classification_type": "U",
        "meta_norad_cat_id": 36605,
        "meta_element_set_no": 999,
        "meta_rev_at_epoch": 85966,
        "meta_bstar": 3.7921e-05,
        "meta_mean_motion_dot": 7.29e-06,
        "meta_mean_motion_ddot": 0,
        "tle_line1": "1 36605U 10030A   25355.47914286  .00000729  00000+0  37921-4 0  9998",
        "tle_line2": "2 36605  97.4444   0.7318 0001799  77.8908 282.2528 15.19156092859660"
      },
      "geometry": {
        "type": "Point",
        "coordinates": [
          6.4182077532562465,
          -30.366416057398727
        ]
      }
    },
    {
      "type": "Feature",
      "properties": {
        "norad_id": 36795,
        "name": "CARTOSAT-2B",
        "group": "resource",
        "lat": -9.10240744403122,
        "lon": 46.75024944999009,
        "alt_km": 632.430172442575,
        "timestamp": "2025-12-22T18:58:53.077497+00:00",
        "meta_object_name": "CARTOSAT-2B",
        "meta_object_id": "2010-035A",
        "meta_epoch": "2025-12-22T07:39:17.428608",
        "meta_mean_motion": 14.78739294,
        "meta_eccentricity": 0.00127383,
        "meta_inclination": 97.7841,
        "meta_ra_of_asc_node": 45.0379,
        "meta_arg_of_pericenter": 48.4798,
        "meta_mean_anomaly": 311.7504,
        "meta_ephemeris_type": 0,
        "meta_classification_type": "U",
        "meta_norad_cat_id": 36795,
        "meta_element_set_no": 999,
        "meta_rev_at_epoch": 83371,
        "meta_bstar": 0.00015131964,
        "meta_mean_motion_dot": 1.062e-05,
        "meta_mean_motion_ddot": 0,
        "tle_line1": "1 36795U 10035A   25356.31895172  .00001062  00000+0  15132-3 0  9999",
        "tle_line2": "2 36795  97.7841  45.0379 0012738  48.4798 311.7504 14.78739294833714"
      },
      "geometry": {
        "type": "Point",
        "coordinates": [
          46.75024944999009,
          -9.10240744403122
        ]
      }
    },
    {
      "type": "Feature",
      "properties": {
        "norad_id": 36834,
        "name": "YAOGAN-10",
        "group": "resource",
        "lat": -73.72929145450155,
        "lon": 44.99542715416259,
        "alt_km": 622.8549047117513,
        "timestamp": "2025-12-22T18:58:53.077508+00:00",
        "meta_object_name": "YAOGAN-10",
        "meta_object_id": "2010-038A",
        "meta_epoch": "2025-12-22T06:57:33.827040",
        "meta_mean_motion": 14.84638432,
        "meta_eccentricity": 0.0001336,
        "meta_inclination": 97.9129,
        "meta_ra_of_asc_node": 16.0388,
        "meta_arg_of_pericenter": 77.5595,
        "meta_mean_anomaly": 51.1244,
        "meta_ephemeris_type": 0,
        "meta_classification_type": "U",
        "meta_norad_cat_id": 36834,
        "meta_element_set_no": 999,
        "meta_rev_at_epoch": 83095,
        "meta_bstar": 0.00014183869,
        "meta_mean_motion_dot": 1.145e-05,
        "meta_mean_motion_ddot": 0,
        "tle_line1": "1 36834U 10038A   25356.28997485  .00001145  00000+0  14184-3 0  9990",
        "tle_line2": "2 36834  97.9129  16.0388 0001336  77.5595  51.1244 14.84638432830955"
      },
      "geometry": {
        "type": "Point",
        "coordinates": [
          44.99542715416259,
          -73.72929145450155
        ]
      }
    },
    {
      "type": "Feature",
      "properties": {
        "norad_id": 37216,
        "name": "COSMO-SKYMED 4",
        "group": "resource",
        "lat": 60.866160634632436,
        "lon": 12.350176251169472,
        "alt_km": 615.834133254265,
        "timestamp": "2025-12-22T18:58:53.077519+00:00",
        "meta_object_name": "COSMO-SKYMED 4",
        "meta_object_id": "2010-060A",
        "meta_epoch": "2025-12-22T07:06:31.804416",
        "meta_mean_motion": 14.82154513,
        "meta_eccentricity": 0.00014308,
        "meta_inclination": 97.88,
        "meta_ra_of_asc_node": 177.4751,
        "meta_arg_of_pericenter": 81.8856,
        "meta_mean_anomaly": 278.2519,
        "meta_ephemeris_type": 0,
        "meta_classification_type": "U",
        "meta_norad_cat_id": 37216,
        "meta_element_set_no": 999,
        "meta_rev_at_epoch": 81836,
        "meta_bstar": 1.2948021e-05,
        "meta_mean_motion_dot": 5.1e-07,
        "meta_mean_motion_ddot": 0,
        "tle_line1": "1 37216U 10060A   25356.29620144  .00000051  00000+0  12948-4 0  9998",
        "tle_line2": "2 37216  97.8800 177.4751 0001430  81.8856 278.2519 14.82154513818363"
      },
      "geometry": {
        "type": "Point",
        "coordinates": [
          12.350176251169472,
          60.866160634632436
        ]
      }
    },
    {
      "type": "Feature",
      "properties": {
        "norad_id": 37387,
        "name": "RESOURCESAT-2",
        "group": "resource",
        "lat": 54.73620528172304,
        "lon": 47.66250631218878,
        "alt_km": 811.4428124012393,
        "timestamp": "2025-12-22T18:58:53.077529+00:00",
        "meta_object_name": "RESOURCESAT-2",
        "meta_object_id": "2011-015A",
        "meta_epoch": "2025-12-22T06:53:46.500000",
        "meta_mean_motion": 14.21600882,
        "meta_eccentricity": 0.00059734,
        "meta_inclination": 98.7863,
        "meta_ra_of_asc_node": 59.7958,
        "meta_arg_of_pericenter": 16.7021,
        "meta_mean_anomaly": 343.4352,
        "meta_ephemeris_type": 0,
        "meta_classification_type": "U",
        "meta_norad_cat_id": 37387,
        "meta_element_set_no": 999,
        "meta_rev_at_epoch": 76104,
        "meta_bstar": 8.2082859e-05,
        "meta_mean_motion_dot": 1.36e-06,
        "meta_mean_motion_ddot": 0,
        "tle_line1": "1 37387U 11015A   25356.28734375  .00000136  00000+0  82083-4 0  9990",
        "tle_line2": "2 37387  98.7863  59.7958 0005973  16.7021 343.4352 14.21600882761049"
      },
      "geometry": {
        "type": "Point",
        "coordinates": [
          47.66250631218878,
          54.73620528172304
        ]
      }
    }
  ]
}